start=new Date('2023-05-19T00:00:00.000Z').valueOf();
sats=[{"OBJECT_ID":"2021-036AW","MEAN_ANOMALY":"242.1201","MEAN_MOTION_DOT":"0.00004347","REV_AT_EPOCH":"11330","TIME_SYSTEM":"UTC","ELEMENT_SET_NO":"999","INCLINATION":"53.0550","RCS_SIZE":"LARGE","OBJECT_NAME":"STARLINK-2029","OBJECT_TYPE":"PAYLOAD","SEMIMAJOR_AXIS":"6925.354","SITE":"AFETR","EPHEMERIS_TYPE":"0","PERIOD":"95.592","RA_OF_ASC_NODE":"30.0087","MEAN_ELEMENT_THEORY":"SGP4","GP_ID":"232082783","TLE_LINE1":"1 48320U 21036AW  23138.13263094  .00004347  00000-0  31053-3 0  9997","TLE_LINE2":"2 48320  53.0550  30.0087 0000999 117.9889 242.1201 15.06398353113308","LAUNCH_DATE":"2021-04-29","APOAPSIS":"547.910","ARG_OF_PERICENTER":"117.9889","COUNTRY_CODE":"US","ECCENTRICITY":"0.00009990","NORAD_CAT_ID":"48320","EPOCH":"2023-05-18T03:10:59.313216","FILE":"3911221","MEAN_MOTION":"15.06398353","CENTER_NAME":"EARTH","BSTAR":"0.00031053000000","REF_FRAME":"TEME","MEAN_MOTION_DDOT":"0.0000000000000","CLASSIFICATION_TYPE":"U","PERIAPSIS":"546.527","DECAY_DATE":null},{"EPHEMERIS_TYPE":"0","SITE":"AFETR","RA_OF_ASC_NODE":"27.3431","PERIOD":"95.591","GP_ID":"232113262","MEAN_ELEMENT_THEORY":"SGP4","TLE_LINE1":"1 48321U 21036AX  23138.72606355  .00008036  00000-0  55754-3 0  9997","TLE_LINE2":"2 48321  53.0542  27.3431 0000983  99.8200 260.2900 15.06414476113391","LAUNCH_DATE":"2021-04-29","ARG_OF_PERICENTER":"99.8200","APOAPSIS":"547.850","ECCENTRICITY":"0.00009830","COUNTRY_CODE":"US","EPOCH":"2023-05-18T17:25:31.890720","NORAD_CAT_ID":"48321","MEAN_MOTION":"15.06414476","FILE":"3911388","REF_FRAME":"TEME","BSTAR":"0.00055754000000","CENTER_NAME":"EARTH","MEAN_MOTION_DDOT":"0.0000000000000","CLASSIFICATION_TYPE":"U","DECAY_DATE":null,"PERIAPSIS":"546.488","OBJECT_ID":"2021-036AX","MEAN_ANOMALY":"260.2900","MEAN_MOTION_DOT":"0.00008036","REV_AT_EPOCH":"11339","TIME_SYSTEM":"UTC","INCLINATION":"53.0542","ELEMENT_SET_NO":"999","RCS_SIZE":"LARGE","OBJECT_NAME":"STARLINK-2457","SEMIMAJOR_AXIS":"6925.304","OBJECT_TYPE":"PAYLOAD"},{"ARG_OF_PERICENTER":"104.2760","APOAPSIS":"547.854","LAUNCH_DATE":"2021-04-29","GP_ID":"232091788","MEAN_ELEMENT_THEORY":"SGP4","TLE_LINE2":"2 48322  53.0550  28.2540 0000956 104.2760 255.8335 15.06407153113952","TLE_LINE1":"1 48322U 21036AY  23138.52334382  .00008239  00000-0  57121-3 0  9999","EPHEMERIS_TYPE":"0","SITE":"AFETR","RA_OF_ASC_NODE":"28.2540","PERIOD":"95.592","DECAY_DATE":null,"PERIAPSIS":"546.530","REF_FRAME":"TEME","BSTAR":"0.00057121000000","CENTER_NAME":"EARTH","CLASSIFICATION_TYPE":"U","MEAN_MOTION_DDOT":"0.0000000000000","EPOCH":"2023-05-18T12:33:36.906048","NORAD_CAT_ID":"48322","MEAN_MOTION":"15.06407153","FILE":"3911349","ECCENTRICITY":"0.00009560","COUNTRY_CODE":"US","REV_AT_EPOCH":"11395","OBJECT_ID":"2021-036AY","MEAN_ANOMALY":"255.8335","MEAN_MOTION_DOT":"0.00008239","OBJECT_NAME":"STARLINK-2477","SEMIMAJOR_AXIS":"6925.327","OBJECT_TYPE":"PAYLOAD","RCS_SIZE":"LARGE","TIME_SYSTEM":"UTC","INCLINATION":"53.0550","ELEMENT_SET_NO":"999"},{"ECCENTRICITY":"0.00012640","COUNTRY_CODE":"US","NORAD_CAT_ID":"48323","EPOCH":"2023-05-18T12:28:18.398496","FILE":"3911221","MEAN_MOTION":"15.06404915","CENTER_NAME":"EARTH","REF_FRAME":"TEME","BSTAR":"0.00108640000000","MEAN_MOTION_DDOT":"0.0000000000000","CLASSIFICATION_TYPE":"U","PERIAPSIS":"546.323","DECAY_DATE":null,"SITE":"AFETR","EPHEMERIS_TYPE":"0","PERIOD":"95.592","RA_OF_ASC_NODE":"28.2742","MEAN_ELEMENT_THEORY":"SGP4","GP_ID":"232083034","TLE_LINE2":"2 48323  53.0553  28.2742 0001264  94.1111 266.0022 15.06404915113365","TLE_LINE1":"1 48323U 21036AZ  23138.51965739  .00015939  00000-0  10864-2 0  9992","LAUNCH_DATE":"2021-04-29","APOAPSIS":"548.074","ARG_OF_PERICENTER":"94.1111","TIME_SYSTEM":"UTC","ELEMENT_SET_NO":"999","INCLINATION":"53.0553","RCS_SIZE":"LARGE","OBJECT_NAME":"STARLINK-2515","OBJECT_TYPE":"PAYLOAD","SEMIMAJOR_AXIS":"6925.333","MEAN_ANOMALY":"266.0022","OBJECT_ID":"2021-036AZ","MEAN_MOTION_DOT":"0.00015939","REV_AT_EPOCH":"11336"},{"LAUNCH_DATE":"2021-04-29","APOAPSIS":"547.785","ARG_OF_PERICENTER":"61.1662","SITE":"AFETR","EPHEMERIS_TYPE":"0","PERIOD":"95.592","RA_OF_ASC_NODE":"28.2832","MEAN_ELEMENT_THEORY":"SGP4","GP_ID":"232083284","TLE_LINE2":"2 48324  53.0548  28.2832 0000845  61.1662 298.9411 15.06404573113354","TLE_LINE1":"1 48324U 21036BA  23138.51503153  .00017027  00000-0  11591-2 0  9999","CENTER_NAME":"EARTH","BSTAR":"0.00115910000000","REF_FRAME":"TEME","MEAN_MOTION_DDOT":"0.0000000000000","CLASSIFICATION_TYPE":"U","PERIAPSIS":"546.614","DECAY_DATE":null,"ECCENTRICITY":"0.00008450","COUNTRY_CODE":"US","NORAD_CAT_ID":"48324","EPOCH":"2023-05-18T12:21:38.724192","FILE":"3911221","MEAN_MOTION":"15.06404573","REV_AT_EPOCH":"11335","OBJECT_ID":"2021-036BA","MEAN_ANOMALY":"298.9411","MEAN_MOTION_DOT":"0.00017027","RCS_SIZE":"LARGE","OBJECT_NAME":"STARLINK-2527","OBJECT_TYPE":"PAYLOAD","SEMIMAJOR_AXIS":"6925.335","TIME_SYSTEM":"UTC","ELEMENT_SET_NO":"999","INCLINATION":"53.0548"},{"COUNTRY_CODE":"US","ECCENTRICITY":"0.00009370","MEAN_MOTION":"15.06405949","FILE":"3911221","EPOCH":"2023-05-18T12:17:41.404992","NORAD_CAT_ID":"48325","MEAN_MOTION_DDOT":"0.0000000000000","CLASSIFICATION_TYPE":"U","BSTAR":"0.00070541000000","REF_FRAME":"TEME","CENTER_NAME":"EARTH","DECAY_DATE":null,"PERIAPSIS":"546.546","RA_OF_ASC_NODE":"28.3059","PERIOD":"95.592","EPHEMERIS_TYPE":"0","SITE":"AFETR","TLE_LINE1":"1 48325U 21036BB  23138.51228478  .00010243  00000-0  70541-3 0  9998","TLE_LINE2":"2 48325  53.0548  28.3059 0000937  99.1630 260.9465 15.06405949113362","GP_ID":"232084036","MEAN_ELEMENT_THEORY":"SGP4","LAUNCH_DATE":"2021-04-29","ARG_OF_PERICENTER":"99.1630","APOAPSIS":"547.844","INCLINATION":"53.0548","ELEMENT_SET_NO":"999","TIME_SYSTEM":"UTC","RCS_SIZE":"LARGE","SEMIMAJOR_AXIS":"6925.330","OBJECT_TYPE":"PAYLOAD","OBJECT_NAME":"STARLINK-2495","MEAN_MOTION_DOT":"0.00010243","OBJECT_ID":"2021-036BB","MEAN_ANOMALY":"260.9465","REV_AT_EPOCH":"11336"},{"TIME_SYSTEM":"UTC","INCLINATION":"53.0551","ELEMENT_SET_NO":"999","OBJECT_NAME":"STARLINK-2498","SEMIMAJOR_AXIS":"6925.300","OBJECT_TYPE":"PAYLOAD","RCS_SIZE":"LARGE","OBJECT_ID":"2021-036BC","MEAN_ANOMALY":"267.0431","MEAN_MOTION_DOT":"0.00013135","REV_AT_EPOCH":"11339","EPOCH":"2023-05-18T16:58:59.891232","NORAD_CAT_ID":"48326","MEAN_MOTION":"15.06415821","FILE":"3911388","COUNTRY_CODE":"US","ECCENTRICITY":"0.00009360","DECAY_DATE":null,"PERIAPSIS":"546.517","REF_FRAME":"TEME","BSTAR":"0.00089864000000","CENTER_NAME":"EARTH","CLASSIFICATION_TYPE":"U","MEAN_MOTION_DDOT":"0.0000000000000","GP_ID":"232113012","MEAN_ELEMENT_THEORY":"SGP4","TLE_LINE1":"1 48326U 21036BC  23138.70763763  .00013135  00000-0  89864-3 0  9992","TLE_LINE2":"2 48326  53.0551  27.4312 0000936  93.0665 267.0431 15.06415821113393","EPHEMERIS_TYPE":"0","SITE":"AFETR","RA_OF_ASC_NODE":"27.4312","PERIOD":"95.591","ARG_OF_PERICENTER":"93.0665","APOAPSIS":"547.813","LAUNCH_DATE":"2021-04-29"},{"RCS_SIZE":"LARGE","OBJECT_NAME":"STARLINK-2502","OBJECT_TYPE":"PAYLOAD","SEMIMAJOR_AXIS":"6925.315","TIME_SYSTEM":"UTC","ELEMENT_SET_NO":"999","INCLINATION":"53.0548","REV_AT_EPOCH":"11336","MEAN_ANOMALY":"279.7182","OBJECT_ID":"2021-036BD","MEAN_MOTION_DOT":"0.00009192","CENTER_NAME":"EARTH","BSTAR":"0.00063500000000","REF_FRAME":"TEME","CLASSIFICATION_TYPE":"U","MEAN_MOTION_DDOT":"0.0000000000000","PERIAPSIS":"546.486","DECAY_DATE":null,"ECCENTRICITY":"0.00010020","COUNTRY_CODE":"US","NORAD_CAT_ID":"48327","EPOCH":"2023-05-18T12:07:04.357056","FILE":"3911221","MEAN_MOTION":"15.06410998","LAUNCH_DATE":"2021-04-29","APOAPSIS":"547.874","ARG_OF_PERICENTER":"80.3920","SITE":"AFETR","EPHEMERIS_TYPE":"0","PERIOD":"95.591","RA_OF_ASC_NODE":"28.3401","MEAN_ELEMENT_THEORY":"SGP4","GP_ID":"232082534","TLE_LINE2":"2 48327  53.0548  28.3401 0001002  80.3920 279.7182 15.06410998113367","TLE_LINE1":"1 48327U 21036BD  23138.50491154  .00009192  00000-0  63500-3 0  9990"},{"APOAPSIS":"547.866","ARG_OF_PERICENTER":"74.1708","LAUNCH_DATE":"2021-04-29","MEAN_ELEMENT_THEORY":"SGP4","GP_ID":"232114014","TLE_LINE2":"2 48328  53.0554  26.2707 0001024  74.1708 285.9393 15.06418424113433","TLE_LINE1":"1 48328U 21036BE  23138.96471048  .00016821  00000-0  11449-2 0  9992","SITE":"AFETR","EPHEMERIS_TYPE":"0","PERIOD":"95.591","RA_OF_ASC_NODE":"26.2707","PERIAPSIS":"546.448","DECAY_DATE":null,"CENTER_NAME":"EARTH","REF_FRAME":"TEME","BSTAR":"0.00114490000000","CLASSIFICATION_TYPE":"U","MEAN_MOTION_DDOT":"0.0000000000000","NORAD_CAT_ID":"48328","EPOCH":"2023-05-18T23:09:10.985472","FILE":"3911388","MEAN_MOTION":"15.06418424","COUNTRY_CODE":"US","ECCENTRICITY":"0.00010240","REV_AT_EPOCH":"11343","MEAN_ANOMALY":"285.9393","OBJECT_ID":"2021-036BE","MEAN_MOTION_DOT":"0.00016821","OBJECT_NAME":"STARLINK-2504","OBJECT_TYPE":"PAYLOAD","SEMIMAJOR_AXIS":"6925.292","RCS_SIZE":"LARGE","TIME_SYSTEM":"UTC","ELEMENT_SET_NO":"999","INCLINATION":"53.0554"},{"DECAY_DATE":null,"PERIAPSIS":"546.660","REF_FRAME":"TEME","BSTAR":"0.00106810000000","CENTER_NAME":"EARTH","MEAN_MOTION_DDOT":"0.0000000000000","CLASSIFICATION_TYPE":"U","EPOCH":"2023-05-18T23:05:14.061120","NORAD_CAT_ID":"48329","MEAN_MOTION":"15.06417862","FILE":"3911388","COUNTRY_CODE":"US","ECCENTRICITY":"0.00007200","ARG_OF_PERICENTER":"90.1430","APOAPSIS":"547.657","LAUNCH_DATE":"2021-04-29","GP_ID":"232113263","MEAN_ELEMENT_THEORY":"SGP4","TLE_LINE1":"1 48329U 21036BF  23138.96196830  .00015671  00000-0  10681-2 0  9995","TLE_LINE2":"2 48329  53.0556  26.2874 0000720  90.1430 269.9642 15.06417862113437","EPHEMERIS_TYPE":"0","SITE":"AFETR","RA_OF_ASC_NODE":"26.2874","PERIOD":"95.591","OBJECT_NAME":"STARLINK-2510","SEMIMAJOR_AXIS":"6925.294","OBJECT_TYPE":"PAYLOAD","RCS_SIZE":"LARGE","TIME_SYSTEM":"UTC","INCLINATION":"53.0556","ELEMENT_SET_NO":"999","REV_AT_EPOCH":"11343","MEAN_ANOMALY":"269.9642","OBJECT_ID":"2021-036BF","MEAN_MOTION_DOT":"0.00015671"}];
